{
 "type": "FeatureCollection",
 "features": [
  {
   "type": "Feature",
   "properties": {
    "electorateId": "synthetic-electorate-1"
   },
   "geometry": {
    "type": "Polygon",
    "coordinates": [
     [
      [
       0,
       0
      ],
      [
       1,
       0
      ],
      [
       1,
       1
      ],
      [
       0,
       1
      ],
      [
       0,
       0
      ]
     ]
    ]
   }
  },
  {
   "type": "Feature",
   "properties": {
    "electorateId": "synthetic-electorate-2"
   },
   "geometry": {
    "type": "Polygon",
    "coordinates": [
     [
      [
       1,
       0
      ],
      [
       2,
       0
      ],
      [
       2,
       1
      ],
      [
       1,
       1
      ],
      [
       1,
       0
      ]
     ]
    ]
   }
  },
  {
   "type": "Feature",
   "properties": {
    "electorateId": "synthetic-electorate-3"
   },
   "geometry": {
    "type": "Polygon",
    "coordinates": [
     [
      [
       2,
       0
      ],
      [
       3,
       0
      ],
      [
       3,
       1
      ],
      [
       2,
       1
      ],
      [
       2,
       0
      ]
     ]
    ]
   }
  },
  {
   "type": "Feature",
   "properties": {
    "electorateId": "synthetic-electorate-4"
   },
   "geometry": {
    "type": "Polygon",
    "coordinates": [
     [
      [
       3,
       0
      ],
      [
       4,
       0
      ],
      [
       4,
       1
      ],
      [
       3,
       1
      ],
      [
       3,
       0
      ]
     ]
    ]
   }
  },
  {
   "type": "Feature",
   "properties": {
    "electorateId": "synthetic-electorate-5"
   },
   "geometry": {
    "type": "Polygon",
    "coordinates": [
     [
      [
       0,
       1
      ],
      [
       1,
       1
      ],
      [
       1,
       2
      ],
      [
       0,
       2
      ],
      [
       0,
       1
      ]
     ]
    ]
   }
  },
  {
   "type": "Feature",
   "properties": {
    "electorateId": "synthetic-electorate-6"
   },
   "geometry": {
    "type": "Polygon",
    "coordinates": [
     [
      [
       1,
       1
      ],
      [
       2,
       1
      ],
      [
       2,
       2
      ],
      [
       1,
       2
      ],
      [
       1,
       1
      ]
     ]
    ]
   }
  },
  {
   "type": "Feature",
   "properties": {
    "electorateId": "synthetic-electorate-m1"
   },
   "geometry": {
    "type": "Polygon",
    "coordinates": [
     [
      [
       2,
       1
      ],
      [
       3,
       1
      ],
      [
       3,
       2
      ],
      [
       2,
       2
      ],
      [
       2,
       1
      ]
     ]
    ]
   }
  }
 ]
}
